{
  "type": "FeatureCollection",
  "features": [
    {
      "type": "Feature",
      "properties": {
        "norad_id": 33860,
        "name": "IRIDIUM 33 DEB",
        "group": "iridium-33-debris",
        "lat": -51.797297281235764,
        "lon": 22.885180396893183,
        "alt_km": 673.2193197434817,
        "timestamp": "2025-12-12T03:50:52.802818+00:00",
        "meta_object_name": "IRIDIUM 33 DEB",
        "meta_object_id": "1997-051AD",
        "meta_epoch": "2025-12-11T03:48:48.164256",
        "meta_mean_motion": 14.67334001,
        "meta_eccentricity": 0.00076792,
        "meta_inclination": 86.3835,
        "meta_ra_of_asc_node": 27.9377,
        "meta_arg_of_pericenter": 3.2947,
        "meta_mean_anomaly": 58.2985,
        "meta_ephemeris_type": 0,
        "meta_classification_type": "U",
        "meta_norad_cat_id": 33860,
        "meta_element_set_no": 999,
        "meta_rev_at_epoch": 88699,
        "meta_bstar": 0.0018344014,
        "meta_mean_motion_dot": 0.00010386,
        "meta_mean_motion_ddot": 0,
        "tle_line1": "1 33860U 97051AD  25345.15889079  .00010386  00000+0  18344-2 0  9997",
        "tle_line2": "2 33860  86.3835  27.9377 0007679   3.2947  58.2985 14.67334001886990"
      },
      "geometry": {
        "type": "Point",
        "coordinates": [
          22.885180396893183,
          -51.797297281235764
        ]
      }
    },
    {
      "type": "Feature",
      "properties": {
        "norad_id": 33862,
        "name": "IRIDIUM 33 DEB",
        "group": "iridium-33-debris",
        "lat": -21.577067004346972,
        "lon": 36.362376275062935,
        "alt_km": 669.7194956208577,
        "timestamp": "2025-12-12T03:50:52.802829+00:00",
        "meta_object_name": "IRIDIUM 33 DEB",
        "meta_object_id": "1997-051AF",
        "meta_epoch": "2025-12-11T15:37:39.995904",
        "meta_mean_motion": 14.6944815,
        "meta_eccentricity": 0.00535473,
        "meta_inclination": 86.409,
        "meta_ra_of_asc_node": 38.0099,
        "meta_arg_of_pericenter": 72.8442,
        "meta_mean_anomaly": 94.4625,
        "meta_ephemeris_type": 0,
        "meta_classification_type": "U",
        "meta_norad_cat_id": 33862,
        "meta_element_set_no": 999,
        "meta_rev_at_epoch": 88807,
        "meta_bstar": 0.0022606602,
        "meta_mean_motion_dot": 0.00013719,
        "meta_mean_motion_ddot": 0,
        "tle_line1": "1 33862U 97051AF  25345.65115736  .00013719  00000+0  22607-2 0  9996",
        "tle_line2": "2 33862  86.4090  38.0099 0053547  72.8442  94.4625 14.69448150888074"
      },
      "geometry": {
        "type": "Point",
        "coordinates": [
          36.362376275062935,
          -21.577067004346972
        ]
      }
    },
    {
      "type": "Feature",
      "properties": {
        "norad_id": 33866,
        "name": "IRIDIUM 33 DEB",
        "group": "iridium-33-debris",
        "lat": 43.96930845600813,
        "lon": -90.29852252794608,
        "alt_km": 730.7414971759981,
        "timestamp": "2025-12-12T03:50:52.802840+00:00",
        "meta_object_name": "IRIDIUM 33 DEB",
        "meta_object_id": "1997-051AK",
        "meta_epoch": "2025-12-11T14:00:41.054400",
        "meta_mean_motion": 14.2526927,
        "meta_eccentricity": 0.01143969,
        "meta_inclination": 86.2997,
        "meta_ra_of_asc_node": 93.5245,
        "meta_arg_of_pericenter": 165.0663,
        "meta_mean_anomaly": 255.0848,
        "meta_ephemeris_type": 0,
        "meta_classification_type": "U",
        "meta_norad_cat_id": 33866,
        "meta_element_set_no": 999,
        "meta_rev_at_epoch": 86794,
        "meta_bstar": 0.0011314221,
        "meta_mean_motion_dot": 2.868e-05,
        "meta_mean_motion_ddot": 0,
        "tle_line1": "1 33866U 97051AK  25345.58380850  .00002868  00000+0  11314-2 0  9999",
        "tle_line2": "2 33866  86.2997  93.5245 0114396 165.0663 255.0848 14.25269270867942"
      },
      "geometry": {
        "type": "Point",
        "coordinates": [
          -90.29852252794608,
          43.96930845600813
        ]
      }
    },
    {
      "type": "Feature",
      "properties": {
        "norad_id": 33867,
        "name": "IRIDIUM 33 DEB",
        "group": "iridium-33-debris",
        "lat": -55.188142400105114,
        "lon": 175.65548303137325,
        "alt_km": 382.1935657491331,
        "timestamp": "2025-12-12T03:50:52.802851+00:00",
        "meta_object_name": "IRIDIUM 33 DEB",
        "meta_object_id": "1997-051AL",
        "meta_epoch": "2025-12-11T11:30:45.158112",
        "meta_mean_motion": 15.6538919,
        "meta_eccentricity": 0.00132443,
        "meta_inclination": 86.3636,
        "meta_ra_of_asc_node": 350.76,
        "meta_arg_of_pericenter": 90.5999,
        "meta_mean_anomaly": 269.6786,
        "meta_ephemeris_type": 0,
        "meta_classification_type": "U",
        "meta_norad_cat_id": 33867,
        "meta_element_set_no": 999,
        "meta_rev_at_epoch": 89491,
        "meta_bstar": 0.011411121,
        "meta_mean_motion_dot": 0.01268862,
        "meta_mean_motion_ddot": 0,
        "tle_line1": "1 33867U 97051AL  25345.47968933  .01268862  00000+0  11411-1 0  9998",
        "tle_line2": "2 33867  86.3636 350.7600 0013244  90.5999 269.6786 15.65389190894919"
      },
      "geometry": {
        "type": "Point",
        "coordinates": [
          175.65548303137325,
          -55.188142400105114
        ]
      }
    },
    {
      "type": "Feature",
      "properties": {
        "norad_id": 33870,
        "name": "IRIDIUM 33 DEB",
        "group": "iridium-33-debris",
        "lat": -12.471726578076678,
        "lon": -120.68752638773253,
        "alt_km": 728.9693398112731,
        "timestamp": "2025-12-12T03:50:52.802862+00:00",
        "meta_object_name": "IRIDIUM 33 DEB",
        "meta_object_id": "1997-051AP",
        "meta_epoch": "2025-12-11T05:37:02.620704",
        "meta_mean_motion": 14.45838487,
        "meta_eccentricity": 0.00213236,
        "meta_inclination": 86.3744,
        "meta_ra_of_asc_node": 58.9059,
        "meta_arg_of_pericenter": 182.8727,
        "meta_mean_anomaly": 231.2371,
        "meta_ephemeris_type": 0,
        "meta_classification_type": "U",
        "meta_norad_cat_id": 33870,
        "meta_element_set_no": 999,
        "meta_rev_at_epoch": 88115,
        "meta_bstar": 0.0012319282,
        "meta_mean_motion_dot": 4.403e-05,
        "meta_mean_motion_ddot": 0,
        "tle_line1": "1 33870U 97051AP  25345.23405811  .00004403  00000+0  12319-2 0  9994",
        "tle_line2": "2 33870  86.3744  58.9059 0021323 182.8727 231.2371 14.45838487881151"
      },
      "geometry": {
        "type": "Point",
        "coordinates": [
          -120.68752638773253,
          -12.471726578076678
        ]
      }
    },
    {
      "type": "Feature",
      "properties": {
        "norad_id": 33881,
        "name": "IRIDIUM 33 DEB",
        "group": "iridium-33-debris",
        "lat": 37.60702562348061,
        "lon": 109.78451491180773,
        "alt_km": 734.2086613504971,
        "timestamp": "2025-12-12T03:50:52.802873+00:00",
        "meta_object_name": "IRIDIUM 33 DEB",
        "meta_object_id": "1997-051BA",
        "meta_epoch": "2025-12-11T14:32:20.085792",
        "meta_mean_motion": 14.56542071,
        "meta_eccentricity": 0.00614976,
        "meta_inclination": 86.3861,
        "meta_ra_of_asc_node": 107.2351,
        "meta_arg_of_pericenter": 178.2333,
        "meta_mean_anomaly": 194.09,
        "meta_ephemeris_type": 0,
        "meta_classification_type": "U",
        "meta_norad_cat_id": 33881,
        "meta_element_set_no": 999,
        "meta_rev_at_epoch": 87484,
        "meta_bstar": 0.0035261884,
        "meta_mean_motion_dot": 0.00016145,
        "meta_mean_motion_ddot": 0,
        "tle_line1": "1 33881U 97051BA  25345.60578803  .00016145  00000+0  35262-2 0  9997",
        "tle_line2": "2 33881  86.3861 107.2351 0061497 178.2333 194.0900 14.56542071874849"
      },
      "geometry": {
        "type": "Point",
        "coordinates": [
          109.78451491180773,
          37.60702562348061
        ]
      }
    },
    {
      "type": "Feature",
      "properties": {
        "norad_id": 33884,
        "name": "IRIDIUM 33 DEB",
        "group": "iridium-33-debris",
        "lat": -58.42798184298225,
        "lon": 4.1496428472711315,
        "alt_km": 638.4467778076068,
        "timestamp": "2025-12-12T03:50:52.802884+00:00",
        "meta_object_name": "IRIDIUM 33 DEB",
        "meta_object_id": "1997-051BD",
        "meta_epoch": "2025-12-11T10:27:31.158720",
        "meta_mean_motion": 14.77392014,
        "meta_eccentricity": 0.0009807,
        "meta_inclination": 86.3697,
        "meta_ra_of_asc_node": 10.4065,
        "meta_arg_of_pericenter": 328.8934,
        "meta_mean_anomaly": 81.4709,
        "meta_ephemeris_type": 0,
        "meta_classification_type": "U",
        "meta_norad_cat_id": 33884,
        "meta_element_set_no": 999,
        "meta_rev_at_epoch": 88828,
        "meta_bstar": 0.002752918,
        "meta_mean_motion_dot": 0.0001965,
        "meta_mean_motion_ddot": 0,
        "tle_line1": "1 33884U 97051BD  25345.43577730  .00019650  00000+0  27529-2 0  9990",
        "tle_line2": "2 33884  86.3697  10.4065 0009807 328.8934  81.4709 14.77392014888285"
      },
      "geometry": {
        "type": "Point",
        "coordinates": [
          4.1496428472711315,
          -58.42798184298225
        ]
      }
    }
  ]
}